{
  "type": "FeatureCollection",
  "features": [
    {
      "type": "Feature",
      "properties": {
        "norad_id": 34079,
        "name": "IRIDIUM 33 DEB",
        "group": "iridium-33-debris",
        "lat": -40.97314282670092,
        "lon": -163.88867487832442,
        "alt_km": 630.8717487291833,
        "timestamp": "2025-12-03T06:58:43.626538+00:00",
        "meta_object_name": "IRIDIUM 33 DEB",
        "meta_object_id": "1997-051CN",
        "meta_epoch": "2025-12-02T20:49:31.052928",
        "meta_mean_motion": 14.83114915,
        "meta_eccentricity": 0.0006779,
        "meta_inclination": 86.3787,
        "meta_ra_of_asc_node": 13.1506,
        "meta_arg_of_pericenter": 37.8553,
        "meta_mean_anomaly": 85.7875,
        "meta_ephemeris_type": 0,
        "meta_classification_type": "U",
        "meta_norad_cat_id": 34079,
        "meta_element_set_no": 999,
        "meta_rev_at_epoch": 88831,
        "meta_bstar": 0.0020737,
        "meta_mean_motion_dot": 0.00016948,
        "meta_mean_motion_ddot": 0,
        "tle_line1": "1 34079U 97051CN  25336.86772052  .00016948  00000+0  20737-2 0  9999",
        "tle_line2": "2 34079  86.3787  13.1506 0006779  37.8553  85.7875 14.83114915888315"
      },
      "geometry": {
        "type": "Point",
        "coordinates": [
          -163.88867487832442,
          -40.97314282670092
        ]
      }
    },
    {
      "type": "Feature",
      "properties": {
        "norad_id": 34088,
        "name": "IRIDIUM 33 DEB",
        "group": "iridium-33-debris",
        "lat": 50.87252706297696,
        "lon": 39.51912543145546,
        "alt_km": 594.8085335235519,
        "timestamp": "2025-12-03T06:58:43.626548+00:00",
        "meta_object_name": "IRIDIUM 33 DEB",
        "meta_object_id": "1997-051CX",
        "meta_epoch": "2025-12-02T16:49:00.759072",
        "meta_mean_motion": 14.90581573,
        "meta_eccentricity": 0.0005128,
        "meta_inclination": 86.3862,
        "meta_ra_of_asc_node": 35.3339,
        "meta_arg_of_pericenter": 213.7318,
        "meta_mean_anomaly": 273.0169,
        "meta_ephemeris_type": 0,
        "meta_classification_type": "U",
        "meta_norad_cat_id": 34088,
        "meta_element_set_no": 999,
        "meta_rev_at_epoch": 88592,
        "meta_bstar": 0.0032335,
        "meta_mean_motion_dot": 0.00031763,
        "meta_mean_motion_ddot": 0,
        "tle_line1": "1 34088U 97051CX  25336.70070323  .00031763  00000+0  32335-2 0  9993",
        "tle_line2": "2 34088  86.3862  35.3339 0005128 213.7318 273.0169 14.90581573885928"
      },
      "geometry": {
        "type": "Point",
        "coordinates": [
          39.51912543145546,
          50.87252706297696
        ]
      }
    },
    {
      "type": "Feature",
      "properties": {
        "norad_id": 34091,
        "name": "IRIDIUM 33 DEB",
        "group": "iridium-33-debris",
        "lat": -28.29040199537598,
        "lon": -106.86992484443473,
        "alt_km": 644.5346444479501,
        "timestamp": "2025-12-03T06:58:43.626559+00:00",
        "meta_object_name": "IRIDIUM 33 DEB",
        "meta_object_id": "1997-051DA",
        "meta_epoch": "2025-12-02T05:42:26.763264",
        "meta_mean_motion": 14.80503091,
        "meta_eccentricity": 0.0032917,
        "meta_inclination": 86.342,
        "meta_ra_of_asc_node": 71.638,
        "meta_arg_of_pericenter": 331.035,
        "meta_mean_anomaly": 28.9043,
        "meta_ephemeris_type": 0,
        "meta_classification_type": "U",
        "meta_norad_cat_id": 34091,
        "meta_element_set_no": 999,
        "meta_rev_at_epoch": 87711,
        "meta_bstar": 0.0059169,
        "meta_mean_motion_dot": 0.00045975,
        "meta_mean_motion_ddot": 0,
        "tle_line1": "1 34091U 97051DA  25336.23780976  .00045975  00000+0  59169-2 0  9991",
        "tle_line2": "2 34091  86.3420  71.6380 0032917 331.0350  28.9043 14.80503091877115"
      },
      "geometry": {
        "type": "Point",
        "coordinates": [
          -106.86992484443473,
          -28.29040199537598
        ]
      }
    },
    {
      "type": "Feature",
      "properties": {
        "norad_id": 34097,
        "name": "IRIDIUM 33 DEB",
        "group": "iridium-33-debris",
        "lat": -56.833948024014774,
        "lon": -168.58595828264404,
        "alt_km": 837.9541039976984,
        "timestamp": "2025-12-03T06:58:43.626569+00:00",
        "meta_object_name": "IRIDIUM 33 DEB",
        "meta_object_id": "1997-051DG",
        "meta_epoch": "2025-12-02T19:50:04.615584",
        "meta_mean_motion": 14.34654028,
        "meta_eccentricity": 0.0083724,
        "meta_inclination": 86.2009,
        "meta_ra_of_asc_node": 5.7833,
        "meta_arg_of_pericenter": 34.3438,
        "meta_mean_anomaly": 326.313,
        "meta_ephemeris_type": 0,
        "meta_classification_type": "U",
        "meta_norad_cat_id": 34097,
        "meta_element_set_no": 999,
        "meta_rev_at_epoch": 86977,
        "meta_bstar": 0.0016604,
        "meta_mean_motion_dot": 4.904e-05,
        "meta_mean_motion_ddot": 0,
        "tle_line1": "1 34097U 97051DG  25336.82644231  .00004904  00000+0  16604-2 0  9999",
        "tle_line2": "2 34097  86.2009   5.7833 0083724  34.3438 326.3130 14.34654028869777"
      },
      "geometry": {
        "type": "Point",
        "coordinates": [
          -168.58595828264404,
          -56.833948024014774
        ]
      }
    },
    {
      "type": "Feature",
      "properties": {
        "norad_id": 34145,
        "name": "IRIDIUM 33 DEB",
        "group": "iridium-33-debris",
        "lat": -71.45779440266706,
        "lon": 168.12935937266818,
        "alt_km": 782.7969044359343,
        "timestamp": "2025-12-03T06:58:43.626579+00:00",
        "meta_object_name": "IRIDIUM 33 DEB",
        "meta_object_id": "1997-051DY",
        "meta_epoch": "2025-12-02T18:09:46.439136",
        "meta_mean_motion": 14.4217642,
        "meta_eccentricity": 0.0055248,
        "meta_inclination": 86.2115,
        "meta_ra_of_asc_node": 336.9733,
        "meta_arg_of_pericenter": 125.5687,
        "meta_mean_anomaly": 235.0681,
        "meta_ephemeris_type": 0,
        "meta_classification_type": "U",
        "meta_norad_cat_id": 34145,
        "meta_element_set_no": 999,
        "meta_rev_at_epoch": 87494,
        "meta_bstar": 0.0012883,
        "meta_mean_motion_dot": 4.339e-05,
        "meta_mean_motion_ddot": 0,
        "tle_line1": "1 34145U 97051DY  25336.75678749  .00004339  00000+0  12883-2 0  9993",
        "tle_line2": "2 34145  86.2115 336.9733 0055248 125.5687 235.0681 14.42176420874942"
      },
      "geometry": {
        "type": "Point",
        "coordinates": [
          168.12935937266818,
          -71.45779440266706
        ]
      }
    },
    {
      "type": "Feature",
      "properties": {
        "norad_id": 34146,
        "name": "IRIDIUM 33 DEB",
        "group": "iridium-33-debris",
        "lat": 19.432545578593338,
        "lon": -4.71097278987194,
        "alt_km": 739.2051997534336,
        "timestamp": "2025-12-03T06:58:43.626589+00:00",
        "meta_object_name": "IRIDIUM 33 DEB",
        "meta_object_id": "1997-051DZ",
        "meta_epoch": "2025-12-02T13:15:13.588704",
        "meta_mean_motion": 14.48931558,
        "meta_eccentricity": 0.00249634,
        "meta_inclination": 86.2839,
        "meta_ra_of_asc_node": 354.3012,
        "meta_arg_of_pericenter": 258.2164,
        "meta_mean_anomaly": 231.2371,
        "meta_ephemeris_type": 0,
        "meta_classification_type": "U",
        "meta_norad_cat_id": 34146,
        "meta_element_set_no": 999,
        "meta_rev_at_epoch": 87959,
        "meta_bstar": 0.0012342017,
        "meta_mean_motion_dot": 4.71e-05,
        "meta_mean_motion_ddot": 0,
        "tle_line1": "1 34146U 97051DZ  25336.55224061  .00004710  00000+0  12342-2 0  9999",
        "tle_line2": "2 34146  86.2839 354.3012 0024963 258.2164 231.2371 14.48931558879591"
      },
      "geometry": {
        "type": "Point",
        "coordinates": [
          -4.71097278987194,
          19.432545578593338
        ]
      }
    },
    {
      "type": "Feature",
      "properties": {
        "norad_id": 34159,
        "name": "IRIDIUM 33 DEB",
        "group": "iridium-33-debris",
        "lat": 85.9194792802863,
        "lon": 168.84098540244085,
        "alt_km": 768.500428943652,
        "timestamp": "2025-12-03T06:58:43.626599+00:00",
        "meta_object_name": "IRIDIUM 33 DEB",
        "meta_object_id": "1997-051EN",
        "meta_epoch": "2025-12-02T17:11:51.335232",
        "meta_mean_motion": 14.38452068,
        "meta_eccentricity": 0.002654,
        "meta_inclination": 86.3516,
        "meta_ra_of_asc_node": 52.5142,
        "meta_arg_of_pericenter": 322.9062,
        "meta_mean_anomaly": 37.0301,
        "meta_ephemeris_type": 0,
        "meta_classification_type": "U",
        "meta_norad_cat_id": 34159,
        "meta_element_set_no": 999,
        "meta_rev_at_epoch": 87815,
        "meta_bstar": 0.00053465,
        "meta_mean_motion_dot": 1.657e-05,
        "meta_mean_motion_ddot": 0,
        "tle_line1": "1 34159U 97051EN  25336.71656638  .00001657  00000+0  53465-3 0  9999",
        "tle_line2": "2 34159  86.3516  52.5142 0026540 322.9062  37.0301 14.38452068878157"
      },
      "geometry": {
        "type": "Point",
        "coordinates": [
          168.84098540244085,
          85.9194792802863
        ]
      }
    }
  ]
}